[{"OBJECT_NAME":"ZHUHAI-1 03C","OBJECT_ID":"2019-060D","EPOCH":"2026-03-09T23:14:25.268928","MEAN_MOTION":15.71109528,"ECCENTRICITY":0.00111308,"INCLINATION":97.5515,"RA_OF_ASC_NODE":231.2826,"ARG_OF_PERICENTER":267.4607,"MEAN_ANOMALY":92.5381,"EPHEMERIS_TYPE":0,"CLASSIFICATION_TYPE":"U","NORAD_CAT_ID":44537,"ELEMENT_SET_NO":999,"REV_AT_EPOCH":36152,"BSTAR":0.00082474362,"MEAN_MOTION_DOT":0.00104963,"MEAN_MOTION_DDOT":0},{"OBJECT_NAME":"STARLINK-11351 [DTC]","OBJECT_ID":"2024-204N","EPOCH":"2026-03-09T23:27:21.441600","MEAN_MOTION":15.696956,"ECCENTRICITY":7.471e-5,"INCLINATION":53.1601,"RA_OF_ASC_NODE":354.5576,"ARG_OF_PERICENTER":156.573,"MEAN_ANOMALY":203.5322,"EPHEMERIS_TYPE":0,"CLASSIFICATION_TYPE":"U","NORAD_CAT_ID":61886,"ELEMENT_SET_NO":999,"REV_AT_EPOCH":7696,"BSTAR":2.0074008e-5,"MEAN_MOTION_DOT":1.843e-5,"MEAN_MOTION_DDOT":0}]
